[{"OBJECT_NAME":"ONEWEB-0288","OBJECT_ID":"2021-075D","EPOCH":"2026-03-23T04:13:02.473248","MEAN_MOTION":13.12442596,"ECCENTRICITY":0.00018328,"INCLINATION":87.9012,"RA_OF_ASC_NODE":7.7299,"ARG_OF_PERICENTER":74.4989,"MEAN_ANOMALY":285.6341,"EPHEMERIS_TYPE":0,"CLASSIFICATION_TYPE":"U","NORAD_CAT_ID":49078,"ELEMENT_SET_NO":999,"REV_AT_EPOCH":22390,"BSTAR":0.00086646997,"MEAN_MOTION_DOT":3.24e-6,"MEAN_MOTION_DDOT":0},{"OBJECT_NAME":"ONEWEB-0289","OBJECT_ID":"2021-075E","EPOCH":"2026-03-23T02:14:57.068448","MEAN_MOTION":13.17648634,"ECCENTRICITY":0.00022553,"INCLINATION":87.9176,"RA_OF_ASC_NODE":22.9746,"ARG_OF_PERICENTER":74.5047,"MEAN_ANOMALY":285.6334,"EPHEMERIS_TYPE":0,"CLASSIFICATION_TYPE":"U","NORAD_CAT_ID":49079,"ELEMENT_SET_NO":999,"REV_AT_EPOCH":22286,"BSTAR":1.9698153e-5,"MEAN_MOTION_DOT":2.1e-7,"MEAN_MOTION_DDOT":0},{"OBJECT_NAME":"ONEWEB-0290","OBJECT_ID":"2021-075F","EPOCH":"2026-03-23T01:36:16.817184","MEAN_MOTION":13.17650349,"ECCENTRICITY":0.00024274,"INCLINATION":87.918,"RA_OF_ASC_NODE":22.9491,"ARG_OF_PERICENTER":78.0191,"MEAN_ANOMALY":282.1212,"EPHEMERIS_TYPE":0,"CLASSIFICATION_TYPE":"U","NORAD_CAT_ID":49080,"ELEMENT_SET_NO":999,"REV_AT_EPOCH":22227,"BSTAR":0.00012024747,"MEAN_MOTION_DOT":6.0e-7,"MEAN_MOTION_DDOT":0},{"OBJECT_NAME":"ONEWEB-0291","OBJECT_ID":"2021-075G","EPOCH":"2026-03-22T19:46:21.966240","MEAN_MOTION":13.17649523,"ECCENTRICITY":0.00018722,"INCLINATION":87.9176,"RA_OF_ASC_NODE":23.0057,"ARG_OF_PERICENTER":66.7871,"MEAN_ANOMALY":293.3458,"EPHEMERIS_TYPE":0,"CLASSIFICATION_TYPE":"U","NORAD_CAT_ID":49081,"ELEMENT_SET_NO":999,"REV_AT_EPOCH":22223,"BSTAR":0.00015743805,"MEAN_MOTION_DOT":7.4e-7,"MEAN_MOTION_DDOT":0},{"OBJECT_NAME":"ONEWEB-0293","OBJECT_ID":"2021-075H","EPOCH":"2026-03-23T05:29:33.194688","MEAN_MOTION":13.17650195,"ECCENTRICITY":0.00019816,"INCLINATION":87.9173,"RA_OF_ASC_NODE":22.9349,"ARG_OF_PERICENTER":76.3172,"MEAN_ANOMALY":283.8181,"EPHEMERIS_TYPE":0,"CLASSIFICATION_TYPE":"U","NORAD_CAT_ID":49082,"ELEMENT_SET_NO":999,"REV_AT_EPOCH":22231,"BSTAR":0.00027450066,"MEAN_MOTION_DOT":1.19e-6,"MEAN_MOTION_DDOT":0},{"OBJECT_NAME":"ONEWEB-0294","OBJECT_ID":"2021-075J","EPOCH":"2026-03-23T04:22:48.086400","MEAN_MOTION":13.1244222,"ECCENTRICITY":0.00021223,"INCLINATION":87.9015,"RA_OF_ASC_NODE":7.7311,"ARG_OF_PERICENTER":73.9495,"MEAN_ANOMALY":286.1868,"EPHEMERIS_TYPE":0,"CLASSIFICATION_TYPE":"U","NORAD_CAT_ID":49083,"ELEMENT_SET_NO":999,"REV_AT_EPOCH":22329,"BSTAR":0.00029377227,"MEAN_MOTION_DOT":1.18e-6,"MEAN_MOTION_DDOT":0},{"OBJECT_NAME":"ONEWEB-0295","OBJECT_ID":"2021-075K","EPOCH":"2026-03-23T05:28:19.625952","MEAN_MOTION":13.17651178,"ECCENTRICITY":0.00017766,"INCLINATION":87.9169,"RA_OF_ASC_NODE":22.9397,"ARG_OF_PERICENTER":67.9801,"MEAN_ANOMALY":292.1519,"EPHEMERIS_TYPE":0,"CLASSIFICATION_TYPE":"U","NORAD_CAT_ID":49084,"ELEMENT_SET_NO":999,"REV_AT_EPOCH":22227,"BSTAR":0.00019527099,"MEAN_MOTION_DOT":8.9e-7,"MEAN_MOTION_DDOT":0},{"OBJECT_NAME":"ONEWEB-0296","OBJECT_ID":"2021-075L","EPOCH":"2026-03-23T05:43:17.848992","MEAN_MOTION":13.12443924,"ECCENTRICITY":0.00017889,"INCLINATION":87.9019,"RA_OF_ASC_NODE":7.724,"ARG_OF_PERICENTER":66.4759,"MEAN_ANOMALY":293.6558,"EPHEMERIS_TYPE":0,"CLASSIFICATION_TYPE":"U","NORAD_CAT_ID":49085,"ELEMENT_SET_NO":999,"REV_AT_EPOCH":22330,"BSTAR":0.0013414345,"MEAN_MOTION_DOT":4.95e-6,"MEAN_MOTION_DDOT":0},{"OBJECT_NAME":"ONEWEB-0297","OBJECT_ID":"2021-075M","EPOCH":"2026-03-23T04:37:25.577760","MEAN_MOTION":13.12443322,"ECCENTRICITY":0.00017249,"INCLINATION":87.9002,"RA_OF_ASC_NODE":7.7559,"ARG_OF_PERICENTER":74.9537,"MEAN_ANOMALY":285.1782,"EPHEMERIS_TYPE":0,"CLASSIFICATION_TYPE":"U","NORAD_CAT_ID":49086,"ELEMENT_SET_NO":999,"REV_AT_EPOCH":22390,"BSTAR":-0.00069875339,"MEAN_MOTION_DOT":-2.39e-6,"MEAN_MOTION_DDOT":0},{"OBJECT_NAME":"ONEWEB-0298","OBJECT_ID":"2021-075N","EPOCH":"2026-03-23T05:34:36.605568","MEAN_MOTION":13.17649121,"ECCENTRICITY":0.00017231,"INCLINATION":87.9172,"RA_OF_ASC_NODE":22.9356,"ARG_OF_PERICENTER":81.0121,"MEAN_ANOMALY":279.1205,"EPHEMERIS_TYPE":0,"CLASSIFICATION_TYPE":"U","NORAD_CAT_ID":49087,"ELEMENT_SET_NO":999,"REV_AT_EPOCH":22230,"BSTAR":0.00013744558,"MEAN_MOTION_DOT":6.6e-7,"MEAN_MOTION_DDOT":0},{"OBJECT_NAME":"ONEWEB-0299","OBJECT_ID":"2021-075P","EPOCH":"2026-03-23T05:36:50.323392","MEAN_MOTION":13.17648973,"ECCENTRICITY":0.00017422,"INCLINATION":87.9179,"RA_OF_ASC_NODE":22.9076,"ARG_OF_PERICENTER":74.8828,"MEAN_ANOMALY":285.2496,"EPHEMERIS_TYPE":0,"CLASSIFICATION_TYPE":"U","NORAD_CAT_ID":49088,"ELEMENT_SET_NO":999,"REV_AT_EPOCH":22228,"BSTAR":0.00010230258,"MEAN_MOTION_DOT":5.3e-7,"MEAN_MOTION_DDOT":0},{"OBJECT_NAME":"ONEWEB-0300","OBJECT_ID":"2021-075Q","EPOCH":"2026-03-23T04:26:26.021760","MEAN_MOTION":13.1244349,"ECCENTRICITY":0.00015242,"INCLINATION":87.9015,"RA_OF_ASC_NODE":7.7272,"ARG_OF_PERICENTER":87.1793,"MEAN_ANOMALY":272.951,"EPHEMERIS_TYPE":0,"CLASSIFICATION_TYPE":"U","NORAD_CAT_ID":49089,"ELEMENT_SET_NO":999,"REV_AT_EPOCH":22392,"BSTAR":-7.0342507e-5,"MEAN_MOTION_DOT":-1.3e-7,"MEAN_MOTION_DDOT":0},{"OBJECT_NAME":"ONEWEB-0301","OBJECT_ID":"2021-075R","EPOCH":"2026-03-23T04:03:15.954624","MEAN_MOTION":13.12441292,"ECCENTRICITY":0.00016466,"INCLINATION":87.9013,"RA_OF_ASC_NODE":7.7307,"ARG_OF_PERICENTER":89.2695,"MEAN_ANOMALY":270.8623,"EPHEMERIS_TYPE":0,"CLASSIFICATION_TYPE":"U","NORAD_CAT_ID":49090,"ELEMENT_SET_NO":999,"REV_AT_EPOCH":22328,"BSTAR":0.0010954463,"MEAN_MOTION_DOT":4.07e-6,"MEAN_MOTION_DDOT":0},{"OBJECT_NAME":"ONEWEB-0302","OBJECT_ID":"2021-075S","EPOCH":"2026-03-23T05:33:32.130432","MEAN_MOTION":13.12444706,"ECCENTRICITY":0.00020398,"INCLINATION":87.9019,"RA_OF_ASC_NODE":7.7273,"ARG_OF_PERICENTER":71.441,"MEAN_ANOMALY":288.694,"EPHEMERIS_TYPE":0,"CLASSIFICATION_TYPE":"U","NORAD_CAT_ID":49091,"ELEMENT_SET_NO":999,"REV_AT_EPOCH":22327,"BSTAR":0.0010706505,"MEAN_MOTION_DOT":3.98e-6,"MEAN_MOTION_DDOT":0},{"OBJECT_NAME":"ONEWEB-0304","OBJECT_ID":"2021-075T","EPOCH":"2026-03-23T05:00:23.047776","MEAN_MOTION":13.1765049,"ECCENTRICITY":0.00017792,"INCLINATION":87.9178,"RA_OF_ASC_NODE":22.9423,"ARG_OF_PERICENTER":74.2751,"MEAN_ANOMALY":285.8576,"EPHEMERIS_TYPE":0,"CLASSIFICATION_TYPE":"U","NORAD_CAT_ID":49092,"ELEMENT_SET_NO":999,"REV_AT_EPOCH":22225,"BSTAR":0.00021719175,"MEAN_MOTION_DOT":9.7e-7,"MEAN_MOTION_DDOT":0},{"OBJECT_NAME":"ONEWEB-0305","OBJECT_ID":"2021-075U","EPOCH":"2026-03-22T19:43:55.840512","MEAN_MOTION":13.17650758,"ECCENTRICITY":0.00016332,"INCLINATION":87.9175,"RA_OF_ASC_NODE":22.9978,"ARG_OF_PERICENTER":67.7021,"MEAN_ANOMALY":292.4284,"EPHEMERIS_TYPE":0,"CLASSIFICATION_TYPE":"U","NORAD_CAT_ID":49093,"ELEMENT_SET_NO":999,"REV_AT_EPOCH":22223,"BSTAR":0.0001479061,"MEAN_MOTION_DOT":7.0e-7,"MEAN_MOTION_DDOT":0},{"OBJECT_NAME":"ONEWEB-0308","OBJECT_ID":"2021-075V","EPOCH":"2026-03-23T05:23:46.484448","MEAN_MOTION":13.12444787,"ECCENTRICITY":0.00018225,"INCLINATION":87.9016,"RA_OF_ASC_NODE":7.7213,"ARG_OF_PERICENTER":78.8426,"MEAN_ANOMALY":281.2908,"EPHEMERIS_TYPE":0,"CLASSIFICATION_TYPE":"U","NORAD_CAT_ID":49094,"ELEMENT_SET_NO":999,"REV_AT_EPOCH":22328,"BSTAR":0.00036507087,"MEAN_MOTION_DOT":1.44e-6,"MEAN_MOTION_DDOT":0},{"OBJECT_NAME":"ONEWEB-0309","OBJECT_ID":"2021-075W","EPOCH":"2026-03-23T04:55:32.284128","MEAN_MOTION":13.17649466,"ECCENTRICITY":0.00021674,"INCLINATION":87.9179,"RA_OF_ASC_NODE":22.9367,"ARG_OF_PERICENTER":70.9854,"MEAN_ANOMALY":289.1512,"EPHEMERIS_TYPE":0,"CLASSIFICATION_TYPE":"U","NORAD_CAT_ID":49095,"ELEMENT_SET_NO":999,"REV_AT_EPOCH":22225,"BSTAR":3.99651e-5,"MEAN_MOTION_DOT":2.8e-7,"MEAN_MOTION_DDOT":0},{"OBJECT_NAME":"ONEWEB-0310","OBJECT_ID":"2021-075X","EPOCH":"2026-03-23T03:55:57.081504","MEAN_MOTION":13.12441301,"ECCENTRICITY":0.00018581,"INCLINATION":87.9007,"RA_OF_ASC_NODE":7.7631,"ARG_OF_PERICENTER":78.4093,"MEAN_ANOMALY":281.7244,"EPHEMERIS_TYPE":0,"CLASSIFICATION_TYPE":"U","NORAD_CAT_ID":49096,"ELEMENT_SET_NO":999,"REV_AT_EPOCH":22390,"BSTAR":0.0012436702,"MEAN_MOTION_DOT":4.6e-6,"MEAN_MOTION_DDOT":0},{"OBJECT_NAME":"ONEWEB-0311","OBJECT_ID":"2021-075Y","EPOCH":"2026-03-23T05:05:13.516800","MEAN_MOTION":13.17652897,"ECCENTRICITY":0.00014744,"INCLINATION":87.9181,"RA_OF_ASC_NODE":22.93,"ARG_OF_PERICENTER":70.115,"MEAN_ANOMALY":290.0141,"EPHEMERIS_TYPE":0,"CLASSIFICATION_TYPE":"U","NORAD_CAT_ID":49097,"ELEMENT_SET_NO":999,"REV_AT_EPOCH":22230,"BSTAR":0.00027072655,"MEAN_MOTION_DOT":1.18e-6,"MEAN_MOTION_DDOT":0},{"OBJECT_NAME":"ONEWEB-0312","OBJECT_ID":"2021-075Z","EPOCH":"2026-03-23T05:27:07.721280","MEAN_MOTION":13.17648953,"ECCENTRICITY":0.00018441,"INCLINATION":87.9169,"RA_OF_ASC_NODE":22.9439,"ARG_OF_PERICENTER":67.7919,"MEAN_ANOMALY":292.3408,"EPHEMERIS_TYPE":0,"CLASSIFICATION_TYPE":"U","NORAD_CAT_ID":49098,"ELEMENT_SET_NO":999,"REV_AT_EPOCH":22228,"BSTAR":0.00010944555,"MEAN_MOTION_DOT":5.5e-7,"MEAN_MOTION_DDOT":0},{"OBJECT_NAME":"ONEWEB-0313","OBJECT_ID":"2021-075AA","EPOCH":"2026-03-23T05:34:13.409760","MEAN_MOTION":13.17649981,"ECCENTRICITY":0.00017703,"INCLINATION":87.9174,"RA_OF_ASC_NODE":22.9489,"ARG_OF_PERICENTER":75.8037,"MEAN_ANOMALY":284.3291,"EPHEMERIS_TYPE":0,"CLASSIFICATION_TYPE":"U","NORAD_CAT_ID":49099,"ELEMENT_SET_NO":999,"REV_AT_EPOCH":22227,"BSTAR":9.0078611e-5,"MEAN_MOTION_DOT":4.8e-7,"MEAN_MOTION_DDOT":0},{"OBJECT_NAME":"ONEWEB-0314","OBJECT_ID":"2021-075AB","EPOCH":"2026-03-23T04:45:48.863808","MEAN_MOTION":13.17648916,"ECCENTRICITY":0.00018092,"INCLINATION":87.9178,"RA_OF_ASC_NODE":22.9197,"ARG_OF_PERICENTER":66.5446,"MEAN_ANOMALY":293.5876,"EPHEMERIS_TYPE":0,"CLASSIFICATION_TYPE":"U","NORAD_CAT_ID":49100,"ELEMENT_SET_NO":999,"REV_AT_EPOCH":22224,"BSTAR":-4.045644e-6,"MEAN_MOTION_DOT":1.1e-7,"MEAN_MOTION_DDOT":0}]
